NORAD_CAT_ID,OBJECT_NAME,OBJECT_TYPE,EPOCH,MEAN_MOTION,ECCENTRICITY,INCLINATION,RA_OF_ASC_NODE,ARG_OF_PERICENTER,MEAN_ANOMALY,BSTAR,MEAN_MOTION_DOT,MEAN_MOTION_DDOT,TLE_LINE0,TLE_LINE1,TLE_LINE2,SEMIMAJOR_AXIS,PERIOD,APOGEE,PERIGEE,DECAYED
50812.0,STARLINK-3338,PAYLOAD,2023-02-23 12:14:20,15.08836778,0.0001528,53.216,102.9081,87.7905,272.3262,0.00033142,4.99e-05,0.0,0 STARLINK-3338,1 50812U 22001K   23054.50996219  .00004990  00000-0  33142-3 0  9994,2 50812  53.2160 102.9081 0001528  87.7905 272.3262 15.08836778 62946,6917.89,95.438,540.812,538.698,0.0
50812.0,STARLINK-3338,PAYLOAD,2023-02-23 20:11:16,15.08841401,0.0001254,53.2158,101.4218,98.8813,261.2321,0.00032578,4.901e-05,0.0,0 STARLINK-3338,1 50812U 22001K   23054.84116175  .00004901  00000-0  32578-3 0  9990,2 50812  53.2158 101.4218 0001254  98.8813 261.2321 15.08841401 62993,6917.876,95.437,540.609,538.874,0.0
50812.0,STARLINK-3338,PAYLOAD,2023-02-24 12:05:07,15.08851837,0.0001208,53.2153,98.444,96.0389,264.0741,0.00062893,9.739e-05,0.0,0 STARLINK-3338,1 50812U 22001K   23055.50355913  .00009739  00000-0  62893-3 0  9996,2 50812  53.2153  98.4440 0001208  96.0389 264.0741 15.08851837 64349,6917.844,95.437,540.545,538.874,0.0
50812.0,STARLINK-3338,PAYLOAD,2023-02-24 20:02:03,15.08836581,0.0001102,53.2168,96.9602,83.7542,276.3576,4.4705e-05,4.24e-06,0.0,0 STARLINK-3338,1 50812U 22001K   23055.83476360  .00000424  00000-0  44705-4 0  9997,2 50812  53.2168  96.9602 0001102  83.7542 276.3576 15.08836581 64391,6917.891,95.438,540.518,538.993,0.0
50812.0,STARLINK-3338,PAYLOAD,2023-02-25 11:55:55,15.08831052,0.0002165,53.2169,93.9859,82.2788,277.8449,0.00018981,2.733e-05,0.0,0 STARLINK-3338,1 50812U 22001K   23056.49717410  .00002733  00000-0  18981-3 0  9995,2 50812  53.2169  93.9859 0002165  82.2788 277.8449 15.08831052 63245,6917.908,95.438,541.27,538.275,0.0
50812.0,STARLINK-3338,PAYLOAD,2023-02-25 19:52:51,15.0883571,0.0002923,53.2167,92.4998,82.4068,277.7256,0.00037524,5.688e-05,0.0,0 STARLINK-3338,1 50812U 22001K   23056.82837853  .00005688  00000-0  37524-3 0  9992,2 50812  53.2167  92.4998 0002923  82.4068 277.7256 15.08835710 63291,6917.894,95.438,541.781,537.736,0.0
50812.0,STARLINK-3338,PAYLOAD,2023-02-26 08:35:55,15.08866232,0.0001249,53.2167,90.1202,79.5417,280.5716,0.0013023,0.00020514,0.0,0 STARLINK-3338,1 50812U 22001K   23057.35828539  .00020514  00000-0  13023-2 0  9994,2 50812  53.2167  90.1202 0001249  79.5417 280.5716 15.08866232 64623,6917.8,95.436,540.529,538.801,0.0
50812.0,STARLINK-3338,PAYLOAD,2023-02-26 13:22:04,15.08875246,0.0001276,53.2172,89.2271,85.9339,274.1799,0.0013189,0.00020785,0.0,0 STARLINK-3338,1 50812U 22001K   23057.55700065  .00020785  00000-0  13189-2 0  9992,2 50812  53.2172  89.2271 0001276  85.9339 274.1799 15.08875246 63408,6917.773,95.435,540.52,538.755,0.0
50812.0,STARLINK-3338,PAYLOAD,2023-02-27 02:05:10,15.08841845,9.33e-05,53.2178,86.8496,95.0648,265.0451,1.7227e-05,-1.4e-07,0.0,0 STARLINK-3338,1 50812U 22001K   23058.08692511 -.00000014  00000-0  17227-4 0  9990,2 50812  53.2178  86.8496 0000933  95.0648 265.0451 15.08841845 64739,6917.875,95.437,540.385,539.094,0.0
50812.0,STARLINK-3338,PAYLOAD,2023-02-27 11:37:28,15.08861858,0.000111,53.2176,85.0649,101.0894,259.0223,0.001223,0.00019241,0.0,0 STARLINK-3338,1 50812U 22001K   23058.48436326  .00019241  00000-0  12230-2 0  9992,2 50812  53.2176  85.0649 0001110 101.0894 259.0223 15.08861858 64799,6917.814,95.436,540.446,538.911,0.0
50812.0,STARLINK-3338,PAYLOAD,2023-02-28 11:28:15,15.08862255,0.0001543,53.2169,80.6023,118.0781,242.0367,0.00072711,0.0001131,0.0,0 STARLINK-3338,1 50812U 22001K   23059.47795821  .00011310  00000-0  72711-3 0  9990,2 50812  53.2169  80.6023 0001543 118.0781 242.0367 15.08862255 63692,6917.812,95.436,540.745,538.61,0.0
50812.0,STARLINK-3338,PAYLOAD,2023-02-28 13:03:38,15.08870038,0.0001389,53.2177,80.3077,95.4164,264.6986,0.0010096,0.00015829,0.0,0 STARLINK-3338,1 50812U 22001K   23059.54419739  .00015829  00000-0  10096-2 0  9995,2 50812  53.2177  80.3077 0001389  95.4164 264.6986 15.08870038 64953,6917.789,95.436,540.614,538.693,0.0
50812.0,STARLINK-3338,PAYLOAD,2023-02-28 17:49:49,15.08819687,0.000124,53.22,79.4153,120.6856,239.4258,-0.00099971,-0.00016154,0.0,0 STARLINK-3338,1 50812U 22001K   23059.74292961 -.00016154  00000-0 -99971-3 0  9997,2 50812  53.2200  79.4153 0001240 120.6856 239.4258 15.08819687 63739,6917.942,95.439,540.665,538.95,0.0
50812.0,STARLINK-3338,PAYLOAD,2023-03-01 17:40:37,15.08817258,0.0001634,53.2174,74.9565,107.1056,253.0115,0.00075837,0.00011795,0.0,0 STARLINK-3338,1 50812U 22001K   23060.73655036  .00011795  00000-0  75837-3 0  9993,2 50812  53.2174  74.9565 0001634 107.1056 253.0115 15.08817258 65137,6917.95,95.439,540.945,538.685,0.0
50812.0,STARLINK-3338,PAYLOAD,2023-03-02 17:31:24,15.08865036,0.0001489,53.2167,70.4954,105.767,254.3487,0.0013071,0.0002059,0.0,0 STARLINK-3338,1 50812U 22001K   23061.73014632  .00020590  00000-0  13071-2 0  9999,2 50812  53.2167  70.4954 0001489 105.7670 254.3487 15.08865036 65285,6917.804,95.436,540.699,538.639,0.0
50812.0,STARLINK-3338,PAYLOAD,2023-03-03 07:49:52,15.08878898,0.0001639,53.2172,67.8188,107.5667,252.5505,0.0011817,0.00018589,0.0,0 STARLINK-3338,1 50812U 22001K   23062.32629694  .00018589  00000-0  11817-2 0  9996,2 50812  53.2172  67.8188 0001639 107.5667 252.5505 15.08878898 65374,6917.761,95.435,540.76,538.493,0.0
50812.0,STARLINK-3338,PAYLOAD,2023-03-03 17:22:10,15.08868161,0.000171,53.2173,66.0356,92.8192,267.2996,0.00055217,8.517e-05,0.0,0 STARLINK-3338,1 50812U 22001K   23062.72373340  .00008517  00000-0  55217-3 0  9997,2 50812  53.2173  66.0356 0001710  92.8192 267.2996 15.08868161 65438,6917.794,95.436,540.842,538.476,0.0
50812.0,STARLINK-3338,PAYLOAD,2023-03-04 09:16:01,15.08863368,0.0001706,53.2186,63.0595,94.8123,265.3064,0.00020159,2.924e-05,0.0,0 STARLINK-3338,1 50812U 22001K   23063.38612623  .00002924  00000-0  20159-3 0  9993,2 50812  53.2186  63.0595 0001706  94.8123 265.3064 15.08863368 65535,6917.809,95.436,540.854,538.494,0.0
50812.0,STARLINK-3338,PAYLOAD,2023-03-04 17:12:57,15.08843166,0.0001846,53.2184,61.5735,87.143,272.9774,-0.00014882,-2.656e-05,0.0,0 STARLINK-3338,1 50812U 22001K   23063.71733303 -.00002656  00000-0 -14882-3 0  9999,2 50812  53.2184  61.5735 0001846  87.1430 272.9774 15.08843166 65584,6917.871,95.437,541.013,538.459,0.0
50812.0,STARLINK-3338,PAYLOAD,2023-03-05 09:06:48,15.08842722,0.0001959,53.2183,58.5987,85.5522,274.5694,-4.7735e-05,-1.048e-05,0.0,0 STARLINK-3338,1 50812U 22001K   23064.37973315 -.00001048  00000-0 -47735-4 0  9999,2 50812  53.2183  58.5987 0001959  85.5522 274.5694 15.08842722 64436,6917.872,95.437,541.092,538.382,0.0
50812.0,STARLINK-3338,PAYLOAD,2023-03-05 17:03:44,15.0884019,0.0001638,53.2187,57.1121,93.5807,266.5373,-3.3552e-06,-3.41e-06,0.0,0 STARLINK-3338,1 50812U 22001K   23064.71093328 -.00000341  00000-0 -33552-5 0  9992,2 50812  53.2187  57.1121 0001638  93.5807 266.5373 15.08840190 64481,6917.88,95.438,540.878,538.612,0.0
50812.0,STARLINK-3338,PAYLOAD,2023-03-06 04:11:26,15.08847364,0.000126,53.2182,55.0311,92.1537,267.96,0.00019133,2.759e-05,0.0,0 STARLINK-3338,1 50812U 22001K   23065.17461001  .00002759  00000-0  19133-3 0  9990,2 50812  53.2182  55.0311 0001260  92.1537 267.9600 15.08847364 65805,6917.858,95.437,540.595,538.851,0.0
50812.0,STARLINK-3338,PAYLOAD,2023-03-06 10:32:58,15.08868503,0.000148,53.2188,53.8401,105.803,254.3126,0.00061468,9.516e-05,0.0,0 STARLINK-3338,1 50812U 22001K   23065.43956158  .00009516  00000-0  61468-3 0  9997,2 50812  53.2188  53.8401 0001480 105.8030 254.3126 15.08868503 65846,6917.793,95.436,540.682,538.634,0.0
50812.0,STARLINK-3338,PAYLOAD,2023-03-07 05:37:36,15.08846997,0.0001101,53.2182,50.2765,88.6333,271.4785,0.00041828,6.377e-05,0.0,0 STARLINK-3338,1 50812U 22001K   23066.23445498  .00006377  00000-0  41828-3 0  9996,2 50812  53.2182  50.2765 0001101  88.6333 271.4785 15.08846997 65965,6917.859,95.437,540.486,538.962,0.0
50812.0,STARLINK-3338,PAYLOAD,2023-03-07 08:48:23,15.08855402,8.48e-05,53.2179,49.6802,89.5309,270.578,0.002327,0.00036956,0.0,0 STARLINK-3338,1 50812U 22001K   23066.36693551  .00036956  00000-0  23270-2 0  9991,2 50812  53.2179  49.6802 0000848  89.5309 270.5780 15.08855402 65983,6917.833,95.437,540.285,539.112,0.0
50812.0,STARLINK-3338,PAYLOAD,2023-03-07 23:06:51,15.08850502,8.81e-05,53.2178,47.0018,94.9265,265.1828,0.0018422,0.00029161,0.0,0 STARLINK-3338,1 50812U 22001K   23066.96309987  .00029161  00000-0  18422-2 0  9997,2 50812  53.2178  47.0018 0000881  94.9265 265.1828 15.08850502 64822,6917.848,95.437,540.323,539.104,0.0
50812.0,STARLINK-3338,PAYLOAD,2023-03-08 02:17:37,15.08855635,8.56e-05,53.2183,46.4077,95.4706,264.6384,0.001589,0.00025102,0.0,0 STARLINK-3338,1 50812U 22001K   23067.09557819  .00025102  00000-0  15890-2 0  9998,2 50812  53.2183  46.4077 0000856  95.4706 264.6384 15.08855635 66098,6917.833,95.437,540.29,539.105,0.0
50812.0,STARLINK-3338,PAYLOAD,2023-03-08 15:00:43,15.08854899,0.0001389,53.2184,44.0297,81.0703,279.0446,0.0014745,0.00023266,0.0,0 STARLINK-3338,1 50812U 22001K   23067.62550041  .00023266  00000-0  14745-2 0  9994,2 50812  53.2184  44.0297 0001389  81.0703 279.0446 15.08854899 66176,6917.835,95.437,540.661,538.739,0.0
50812.0,STARLINK-3338,PAYLOAD,2023-03-09 05:19:10,15.08863606,0.0001273,53.2196,41.358,122.048,238.0636,0.0016387,0.00025905,0.0,0 STARLINK-3338,1 50812U 22001K   23068.22165495  .00025905  00000-0  16387-2 0  9992,2 50812  53.2196  41.3580 0001273 122.0480 238.0636 15.08863606 66266,6917.808,95.436,540.554,538.793,0.0
50812.0,STARLINK-3338,PAYLOAD,2023-03-09 08:29:56,15.08880452,8.14e-05,53.2182,40.7599,105.672,254.4362,0.0026667,0.00042455,0.0,0 STARLINK-3338,1 50812U 22001K   23068.35413143  .00042455  00000-0  26667-2 0  9993,2 50812  53.2182  40.7599 0000814 105.6720 254.4362 15.08880452 66286,6917.757,95.435,540.185,539.059,0.0
